{
  "norad_id": 51129,
  "name": "STARLINK-3396",
  "history": [
    {
      "epoch": "2026-03-28T15:21:41.551200Z",
      "apogee_km": 540.4718884817166,
      "perigee_km": 539.0274337468763,
      "latitude_deg": -4.6229718026272885e-06,
      "longitude_deg": 157.56915462501388,
      "height_km": 540.408564111497,
      "semi_major_axis_km": 6917.886661114297,
      "eccentricity": 0.0001044,
      "inclination_deg": 53.2169,
      "raan_deg": 214.0499,
      "arg_perigee_deg": 70.8213,
      "mean_anomaly_deg": 289.2892,
      "mean_motion_rev_day": 15.08837948
    },
    {
      "epoch": "2026-03-29T00:54:00.041472Z",
      "apogee_km": 540.4958088331423,
      "perigee_km": 538.9854977838713,
      "latitude_deg": -1.1315388703033115e-05,
      "longitude_deg": 12.315975704209828,
      "height_km": 540.3874868341974,
      "semi_major_axis_km": 6917.8776533085065,
      "eccentricity": 0.00010916,
      "inclination_deg": 53.2172,
      "raan_deg": 212.2655,
      "arg_perigee_deg": 70.7227,
      "mean_anomaly_deg": 289.3883,
      "mean_motion_rev_day": 15.08840895
    },
    {
      "epoch": "2026-03-30T13:27:53.313408Z",
      "apogee_km": 540.7319380136378,
      "perigee_km": 538.7946492154142,
      "latitude_deg": 4.69015459261921e-05,
      "longitude_deg": 175.50599083909538,
      "height_km": 540.7087146575441,
      "semi_major_axis_km": 6917.900293614526,
      "eccentricity": 0.00014002,
      "inclination_deg": 53.2201,
      "raan_deg": 205.4291,
      "arg_perigee_deg": 92.9287,
      "mean_anomaly_deg": 267.1866,
      "mean_motion_rev_day": 15.08833488
    },
    {
      "epoch": "2026-03-30T18:14:02.437152Z",
      "apogee_km": 540.5022495039057,
      "perigee_km": 538.9978857821761,
      "latitude_deg": 4.819459078512674e-05,
      "longitude_deg": 102.87751230646629,
      "height_km": 540.4297675034834,
      "semi_major_axis_km": 6917.887067643041,
      "eccentricity": 0.00010873,
      "inclination_deg": 53.2175,
      "raan_deg": 204.5345,
      "arg_perigee_deg": 73.2761,
      "mean_anomaly_deg": 286.8351,
      "mean_motion_rev_day": 15.08837815
    },
    {
      "epoch": "2026-03-31T06:57:07.828416Z",
      "apogee_km": 540.5254521089973,
      "perigee_km": 539.0076640683519,
      "latitude_deg": -2.7113591040183903e-05,
      "longitude_deg": -90.79612304785489,
      "height_km": 540.5132157517617,
      "semi_major_axis_km": 6917.903558088674,
      "eccentricity": 0.0001097,
      "inclination_deg": 53.2175,
      "raan_deg": 202.1557,
      "arg_perigee_deg": 78.6423,
      "mean_anomaly_deg": 281.4692,
      "mean_motion_rev_day": 15.0883242
    },
    {
      "epoch": "2026-04-01T13:09:27.437472Z",
      "apogee_km": 540.4430090847081,
      "perigee_km": 539.0635817598004,
      "latitude_deg": 5.1454698400708866e-05,
      "longitude_deg": 169.23163901581424,
      "height_km": 540.6583358890497,
      "semi_major_axis_km": 6917.890295422254,
      "eccentricity": 9.97e-05,
      "inclination_deg": 53.2167,
      "raan_deg": 196.5056,
      "arg_perigee_deg": 90.7413,
      "mean_anomaly_deg": 269.3694,
      "mean_motion_rev_day": 15.08836759
    },
    {
      "epoch": "2026-04-02T13:00:14.028192Z",
      "apogee_km": 540.5610058351331,
      "perigee_km": 538.9166267535993,
      "latitude_deg": 4.976441643724989e-05,
      "longitude_deg": 166.09867896958875,
      "height_km": 540.5393339403339,
      "semi_major_axis_km": 6917.875816294366,
      "eccentricity": 0.00011885,
      "inclination_deg": 53.2177,
      "raan_deg": 192.0461,
      "arg_perigee_deg": 83.3325,
      "mean_anomaly_deg": 276.7803,
      "mean_motion_rev_day": 15.08841496
    },
    {
      "epoch": "2026-04-03T12:51:00.387360Z",
      "apogee_km": 540.738178553851,
      "perigee_km": 538.7058499326477,
      "latitude_deg": -6.225498509321546e-05,
      "longitude_deg": 162.96560367962482,
      "height_km": 540.7111906507714,
      "semi_major_axis_km": 6917.8590142432495,
      "eccentricity": 0.00014689,
      "inclination_deg": 53.2178,
      "raan_deg": 187.5856,
      "arg_perigee_deg": 95.2828,
      "mean_anomaly_deg": 264.8331,
      "mean_motion_rev_day": 15.08846993
    },
    {
      "epoch": "2026-04-04T06:20:16.480032Z",
      "apogee_km": 540.7248489417643,
      "perigee_km": 538.8570084010234,
      "latitude_deg": 8.271756661457697e-05,
      "longitude_deg": -103.34054018502064,
      "height_km": 540.8314820431033,
      "semi_major_axis_km": 6917.927928671394,
      "eccentricity": 0.000135,
      "inclination_deg": 53.2164,
      "raan_deg": 184.3146,
      "arg_perigee_deg": 98.928,
      "mean_anomaly_deg": 261.1866,
      "mean_motion_rev_day": 15.08824447
    },
    {
      "epoch": "2026-04-05T14:07:58.990080Z",
      "apogee_km": 540.5639627788723,
      "perigee_km": 538.9645440090871,
      "latitude_deg": -1.1899641096499005e-05,
      "longitude_deg": 132.47958243835862,
      "height_km": 540.8422846281201,
      "semi_major_axis_km": 6917.9012533939795,
      "eccentricity": 0.0001156,
      "inclination_deg": 53.2163,
      "raan_deg": 178.3677,
      "arg_perigee_deg": 103.164,
      "mean_anomaly_deg": 256.9481,
      "mean_motion_rev_day": 15.08833174
    },
    {
      "epoch": "2026-04-05T17:18:45.226656Z",
      "apogee_km": 540.5527632887952,
      "perigee_km": 538.969948145008,
      "latitude_deg": 5.572122700040026e-05,
      "longitude_deg": 84.06160223826298,
      "height_km": 540.8239731879393,
      "semi_major_axis_km": 6917.898355716901,
      "eccentricity": 0.0001144,
      "inclination_deg": 53.2163,
      "raan_deg": 177.7729,
      "arg_perigee_deg": 102.1605,
      "mean_anomaly_deg": 257.9516,
      "mean_motion_rev_day": 15.08834122
    },
    {
      "epoch": "2026-04-06T04:26:27.144960Z",
      "apogee_km": 540.5668676715795,
      "perigee_km": 539.0209868265774,
      "latitude_deg": 1.0635867817280587e-05,
      "longitude_deg": -85.40171532157822,
      "height_km": 540.8361057394849,
      "semi_major_axis_km": 6917.930927249078,
      "eccentricity": 0.00011173,
      "inclination_deg": 53.2163,
      "raan_deg": 175.6913,
      "arg_perigee_deg": 100.9061,
      "mean_anomaly_deg": 259.2057,
      "mean_motion_rev_day": 15.08823466
    },
    {
      "epoch": "2026-04-07T12:14:10.303008Z",
      "apogee_km": 540.5169577247598,
      "perigee_km": 539.0254567152824,
      "latitude_deg": 2.2292241521691772e-05,
      "longitude_deg": 150.41537716618603,
      "height_km": 540.7591562575363,
      "semi_major_axis_km": 6917.908207220021,
      "eccentricity": 0.0001078,
      "inclination_deg": 53.2163,
      "raan_deg": 169.744,
      "arg_perigee_deg": 97.0842,
      "mean_anomaly_deg": 263.0273,
      "mean_motion_rev_day": 15.08830899
    },
    {
      "epoch": "2026-04-07T12:14:10.303872Z",
      "apogee_km": 540.5171652620047,
      "perigee_km": 539.0252491780366,
      "latitude_deg": 1.9542787721811398e-05,
      "longitude_deg": 150.41547151196954,
      "height_km": 540.759181852199,
      "semi_major_axis_km": 6917.908207220021,
      "eccentricity": 0.00010783,
      "inclination_deg": 53.2163,
      "raan_deg": 169.7441,
      "arg_perigee_deg": 97.0842,
      "mean_anomaly_deg": 263.0273,
      "mean_motion_rev_day": 15.08830899
    },
    {
      "epoch": "2026-04-08T12:04:57.119232Z",
      "apogee_km": 540.477751105379,
      "perigee_km": 539.0148954978331,
      "latitude_deg": 1.9337219837740288e-05,
      "longitude_deg": 147.28047008126921,
      "height_km": 540.7106915996869,
      "semi_major_axis_km": 6917.883323301606,
      "eccentricity": 0.00010573,
      "inclination_deg": 53.2162,
      "raan_deg": 165.2835,
      "arg_perigee_deg": 95.3639,
      "mean_anomaly_deg": 264.7474,
      "mean_motion_rev_day": 15.0883904
    },
    {
      "epoch": "2026-04-09T10:20:20.942880Z",
      "apogee_km": 540.4498871371334,
      "perigee_km": 539.0476316936993,
      "latitude_deg": 6.681852326384684e-05,
      "longitude_deg": 168.35419059049764,
      "height_km": 540.672815972119,
      "semi_major_axis_km": 6917.885759415416,
      "eccentricity": 0.00010135,
      "inclination_deg": 53.2164,
      "raan_deg": 161.1205,
      "arg_perigee_deg": 92.2883,
      "mean_anomaly_deg": 267.8226,
      "mean_motion_rev_day": 15.08838243
    },
    {
      "epoch": "2026-04-10T10:11:07.778976Z",
      "apogee_km": 540.492080924173,
      "perigee_km": 538.9950515696382,
      "latitude_deg": -7.897433688295793e-06,
      "longitude_deg": 165.21904744477075,
      "height_km": 540.6480840282827,
      "semi_major_axis_km": 6917.880566246906,
      "eccentricity": 0.0001082,
      "inclination_deg": 53.2162,
      "raan_deg": 156.6599,
      "arg_perigee_deg": 90.6551,
      "mean_anomaly_deg": 269.4565,
      "mean_motion_rev_day": 15.08839942
    },
    {
      "epoch": "2026-04-11T13:12:41.484960Z",
      "apogee_km": 540.5567908085059,
      "perigee_km": 538.9532234412554,
      "latitude_deg": 1.1667158490883487e-05,
      "longitude_deg": 113.66349857213945,
      "height_km": 540.6802096960997,
      "semi_major_axis_km": 6917.89200712488,
      "eccentricity": 0.0001159,
      "inclination_deg": 53.217,
      "raan_deg": 151.6047,
      "arg_perigee_deg": 92.0918,
      "mean_anomaly_deg": 268.0207,
      "mean_motion_rev_day": 15.08836199
    },
    {
      "epoch": "2026-04-13T03:21:56.986560Z",
      "apogee_km": 540.5679000076452,
      "perigee_km": 538.955752865133,
      "latitude_deg": 2.7545597259930906e-05,
      "longitude_deg": -107.35552241759996,
      "height_km": 540.4893438771387,
      "semi_major_axis_km": 6917.898826436389,
      "eccentricity": 0.00011652,
      "inclination_deg": 53.2174,
      "raan_deg": 144.4672,
      "arg_perigee_deg": 77.9349,
      "mean_anomaly_deg": 282.1774,
      "mean_motion_rev_day": 15.08833968
    },
    {
      "epoch": "2026-04-14T19:06:35.453088Z",
      "apogee_km": 540.3860569953549,
      "perigee_km": 539.1007148196531,
      "latitude_deg": -3.453764120792337e-05,
      "longitude_deg": 7.417527088910308,
      "height_km": 540.3204814351343,
      "semi_major_axis_km": 6917.880385907503,
      "eccentricity": 9.29e-05,
      "inclination_deg": 53.2164,
      "raan_deg": 137.0328,
      "arg_perigee_deg": 60.2133,
      "mean_anomaly_deg": 299.8951,
      "mean_motion_rev_day": 15.08840001
    },
    {
      "epoch": "2026-04-15T09:25:04.214496Z",
      "apogee_km": 540.6207632762471,
      "perigee_km": 538.9083059303712,
      "latitude_deg": -1.003957119186685e-05,
      "longitude_deg": 149.53389895773495,
      "height_km": 540.3335485253549,
      "semi_major_axis_km": 6917.901534603308,
      "eccentricity": 0.00012377,
      "inclination_deg": 53.2174,
      "raan_deg": 134.3566,
      "arg_perigee_deg": 67.5486,
      "mean_anomaly_deg": 292.5637,
      "mean_motion_rev_day": 15.08833082
    },
    {
      "epoch": "2026-04-16T18:48:08.635392Z",
      "apogee_km": 540.0162104028796,
      "perigee_km": 539.1016909981981,
      "latitude_deg": 1.0019773219166012e-07,
      "longitude_deg": 1.146233577811822,
      "height_km": 540.3306240045291,
      "semi_major_axis_km": 6917.695950700539,
      "eccentricity": 6.61e-05,
      "inclination_deg": 53.2191,
      "raan_deg": 128.1084,
      "arg_perigee_deg": 74.1082,
      "mean_anomaly_deg": 285.9983,
      "mean_motion_rev_day": 15.08900343
    },
    {
      "epoch": "2026-04-17T18:38:57.150240Z",
      "apogee_km": 540.6206289208967,
      "perigee_km": 538.8846536943074,
      "latitude_deg": -7.251419293986027e-05,
      "longitude_deg": -1.9938179759056047,
      "height_km": 540.5467924112811,
      "semi_major_axis_km": 6917.889641307602,
      "eccentricity": 0.00012547,
      "inclination_deg": 53.2182,
      "raan_deg": 123.6499,
      "arg_perigee_deg": 83.2641,
      "mean_anomaly_deg": 276.8493,
      "mean_motion_rev_day": 15.08836973
    }
  ]
}